IRIDIUM 106             
1 41917U 17003A   24289.38839454  .00000691  00000+0  23961-3 0  9991
2 41917  86.4001 343.3724 0002578  95.3656 264.7834 14.34223994405807
IRIDIUM 103             
1 41918U 17003B   24288.67803279  .00000324  00000+0  10863-3 0  9999
2 41918  86.4001 343.5704 0002194 110.8111 249.3320 14.34216684405729
IRIDIUM 109             
1 41919U 17003C   24288.54483793  .00000488  00000+0  16714-3 0  9993
2 41919  86.4003 343.6756 0001798  99.1957 260.9442 14.34217940405670
IRIDIUM 102             
1 41920U 17003D   24289.55965321  .00000048  00000+0  10190-4 0  9994
2 41920  86.3986 343.1862 0002001  82.8234 277.3189 14.34217650405903
IRIDIUM 105             
1 41921U 17003E   24289.46063204  .00000153  00000+0  47419-4 0  9995
2 41921  86.3941 311.6639 0002327  95.4465 264.6996 14.34214769407741
IRIDIUM 104             
1 41922U 17003F   24289.22349931  .00000620  00000+0  21426-3 0  9992
2 41922  86.4006 343.3629 0002168 109.5833 250.5597 14.34211205405847
IRIDIUM 114             
1 41923U 17003G   24289.09030503  .00000797  00000+0  27750-3 0  9991
2 41923  86.4000 343.4028 0002340  99.1212 261.0249 14.34220191405804
IRIDIUM 108             
1 41924U 17003H   24289.46742875  .00000539  00000+0  18534-3 0  9999
2 41924  86.3936 311.5777 0002427  90.2804 269.8670 14.34222216407710
